NORAD_CAT_ID,OBJECT_NAME,OBJECT_TYPE,EPOCH,MEAN_MOTION,ECCENTRICITY,INCLINATION,RA_OF_ASC_NODE,ARG_OF_PERICENTER,MEAN_ANOMALY,BSTAR,MEAN_MOTION_DOT,MEAN_MOTION_DDOT,TLE_LINE0,TLE_LINE1,TLE_LINE2,SEMIMAJOR_AXIS,PERIOD,APOGEE,PERIGEE,DECAYED
52286.0,STARLINK-3802,PAYLOAD,2022-10-16 10:08:41,15.08831192,0.0001799,53.2161,266.8813,40.1633,319.9492,-6.249100000000001e-05,-1.282e-05,0.0,0 STARLINK-3802,1 52286U 22041AB  22289.42270393 -.00001282  00000-0 -62491-4 0  9996,2 52286  53.2161 266.8813 0001799  40.1633 319.9492 15.08831192 28487,6917.906999999997,95.438,541.0169999999998,538.528,0.0
52286.0,STARLINK-3802,PAYLOAD,2022-10-17 00:27:10,15.08820667,0.0002003,53.2139,264.2055,42.4441,317.6705,-9.4731e-05,-1.795e-05,0.0,0 STARLINK-3802,1 52286U 22041AB  22290.01887698 -.00001795  00000-0 -94731-4 0  9996,2 52286  53.2139 264.2055 0002003  42.4441 317.6705 15.08820667 28570,6917.939,95.439,541.19,538.419,0.0
52286.0,STARLINK-3802,PAYLOAD,2022-10-17 08:24:06,15.0882459,0.0002529999999999,53.2145,262.7224,35.3378,324.7781,-0.00011413,-2.104e-05,0.0,0 STARLINK-3802,1 52286U 22041AB  22290.35008035 -.00002104  00000-0 -11413-3 0  9993,2 52286  53.2145 262.7224 0002530  35.3378 324.7781 15.08824590 27406,6917.927,95.439,541.543,538.0419999999998,0.0
52286.0,STARLINK-3802,PAYLOAD,2022-10-17 14:45:39,15.08823163,0.0002562,53.2144,261.5328,35.2451,324.871,-0.00010262,-1.921e-05,0.0,0 STARLINK-3802,1 52286U 22041AB  22290.61504336 -.00001921  00000-0 -10262-3 0  9994,2 52286  53.2144 261.5328 0002562  35.2451 324.8710 15.08823163 27445,6917.932,95.439,541.569,538.024,0.0
52286.0,STARLINK-3802,PAYLOAD,2022-10-18 01:53:20,15.08833548,0.0002289,53.2169,259.4512,26.0078,334.1029,0.00018755,2.697e-05,0.0,0 STARLINK-3802,1 52286U 22041AB  22291.07870390  .00002697  00000-0  18755-3 0  9995,2 52286  53.2169 259.4512 0002289  26.0078 334.1029 15.08833548 28730,6917.9,95.438,541.349,538.182,0.0
52286.0,STARLINK-3802,PAYLOAD,2022-10-18 08:14:52,15.08836665,0.0002085,53.2154,258.2597,36.6288,323.4846,0.00017416,2.484e-05,0.0,0 STARLINK-3802,1 52286U 22041AB  22291.34366331  .00002484  00000-0  17416-3 0  9997,2 52286  53.2154 258.2597 0002085  36.6288 323.4846 15.08836665 27558,6917.891,95.438,541.198,538.313,0.0
52286.0,STARLINK-3802,PAYLOAD,2022-10-19 03:19:31,15.08831712,0.0001848,53.2165,254.6911,44.7099,315.4042,2.6305e-05,1.3e-06,0.0,0 STARLINK-3802,1 52286U 22041AB  22292.13855559  .00000130  00000-0  26305-4 0  9994,2 52286  53.2165 254.6911 0001848  44.7099 315.4042 15.08831712 28891,6917.906,95.438,541.049,538.492,0.0
52286.0,STARLINK-3802,PAYLOAD,2022-10-19 08:05:40,15.08837386,0.0001616,53.2177,253.7987,56.164,303.9506,4.5862e-05,4.42e-06,0.0,0 STARLINK-3802,1 52286U 22041AB  22292.33727113  .00000442  00000-0  45862-4 0  9995,2 52286  53.2177 253.7987 0001616  56.1640 303.9506 15.08837386 28923,6917.888000000001,95.438,540.871,538.635,0.0
52286.0,STARLINK-3802,PAYLOAD,2022-10-19 14:27:12,15.08827898,0.0001846,53.2169,252.6093,49.2305,310.8847,0.00027734,4.127e-05,0.0,0 STARLINK-3802,1 52286U 22041AB  22292.60222899  .00004127  00000-0  27734-3 0  9997,2 52286  53.2169 252.6093 0001846  49.2305 310.8847 15.08827898 27747,6917.917,95.438,541.059,538.505,0.0
52286.0,STARLINK-3802,PAYLOAD,2022-10-20 04:45:40,15.08861291,0.0001918,53.2171,249.9327,53.2025,306.9143,-0.00025623,-4.366e-05,0.0,0 STARLINK-3802,1 52286U 22041AB  22293.19838524 -.00004366  00000-0 -25623-3 0  9992,2 52286  53.2171 249.9327 0001918  53.2025 306.9143 15.08861291 29059,6917.815,95.436,541.007,538.3530000000002,0.0
52286.0,STARLINK-3802,PAYLOAD,2022-10-20 06:21:03,15.08847497,0.000178,53.2172,249.6353,55.0748,305.0411,-2.1634e-05,-6.32e-06,0.0,0 STARLINK-3802,1 52286U 22041AB  22293.26462504 -.00000632  00000-0 -21634-4 0  9992,2 52286  53.2172 249.6353 0001780  55.0748 305.0411 15.08847497 27840,6917.857,95.437,540.9540000000002,538.491,0.0
52286.0,STARLINK-3802,PAYLOAD,2022-10-20 14:17:58,15.08849029,0.0001896999999999,53.2171,248.1479,46.4181,313.6968,2.0984e-05,4.6e-07,0.0,0 STARLINK-3802,1 52286U 22041AB  22293.59582080  .00000046  00000-0  20984-4 0  9994,2 52286  53.2171 248.1479 0001897  46.4181 313.6968 15.08849029 27896,6917.853,95.437,541.03,538.405,0.0
52286.0,STARLINK-3802,PAYLOAD,2022-10-21 03:01:04,15.08845323,0.000174,53.2175,245.7689,54.4203,305.6951,3.1303e-06,-2.38e-06,0.0,0 STARLINK-3802,1 52286U 22041AB  22294.12574246 -.00000238  00000-0  31303-5 0  9991,2 52286  53.2175 245.7689 0001740  54.4203 305.6951 15.08845323 29198,6917.864000000001,95.437,540.933,538.525,0.0
52286.0,STARLINK-3802,PAYLOAD,2022-10-21 06:11:50,15.088437699999998,0.0001789,53.2176,245.1748,51.1465,308.9687,1.8817e-05,1.1e-07,0.0,0 STARLINK-3802,1 52286U 22041AB  22294.25822264  .00000011  00000-0  18817-4 0  9993,2 52286  53.2176 245.1748 0001789  51.1465 308.9687 15.08843770 27998,6917.869000000002,95.437,540.971,538.496,0.0
52286.0,STARLINK-3802,PAYLOAD,2022-10-21 14:08:46,15.08838119,0.0001947,53.2178,243.6885,48.8709,311.2451,-6.3341e-05,-1.296e-05,0.0,0 STARLINK-3802,1 52286U 22041AB  22294.58942851 -.00001296  00000-0 -63341-4 0  9994,2 52286  53.2178 243.6885 0001947  48.8709 311.2451 15.08838119 29264,6917.886,95.438,541.0980000000002,538.404,0.0
52286.0,STARLINK-3802,PAYLOAD,2022-10-22 02:51:50,15.08845359,0.0001686999999999,53.2178,241.3086,42.2165,317.8957,0.00011387,1.525e-05,0.0,0 STARLINK-3802,1 52286U 22041AB  22295.11933517  .00001525  00000-0  11387-3 0  9998,2 52286  53.2178 241.3086 0001687  42.2165 317.8957 15.08845359 29343,6917.864000000001,95.437,540.896,538.562,0.0
52286.0,STARLINK-3802,PAYLOAD,2022-10-22 06:02:37,15.0884415,0.0001797,53.2171,240.7132,44.1728,315.9408,-8.2951e-06,-4.2e-06,0.0,0 STARLINK-3802,1 52286U 22041AB  22295.25181984 -.00000420  00000-0 -82951-5 0  9998,2 52286  53.2171 240.7132 0001797  44.1728 315.9408 15.08844150 28144,6917.868,95.437,540.976,538.49,0.0
52286.0,STARLINK-3802,PAYLOAD,2022-10-22 13:59:32,15.08855506,0.0001293,53.2173,239.2264,57.1746,302.937,-0.00015936,-2.824e-05,0.0,0 STARLINK-3802,1 52286U 22041AB  22295.58301455 -.00002824  00000-0 -15936-3 0  9998,2 52286  53.2173 239.2264 0001293  57.1746 302.9370 15.08855506 28196,6917.833000000001,95.437,540.592,538.804,0.0
52286.0,STARLINK-3802,PAYLOAD,2022-10-23 02:42:37,15.08850542,0.0001968,53.2178,236.8486,46.1724,313.943,2.6315e-05,1.31e-06,0.0,0 STARLINK-3802,1 52286U 22041AB  22296.11293085  .00000131  00000-0  26315-4 0  9998,2 52286  53.2178 236.8486 0001968  46.1724 313.9430 15.08850542 28276,6917.848000000001,95.437,541.075,538.352,0.0
52286.0,STARLINK-3802,PAYLOAD,2022-10-24 02:33:23,15.08855059,0.0001888,53.2179,232.3863,50.5771,309.5388,5.3152e-05,5.58e-06,0.0,0 STARLINK-3802,1 52286U 22041AB  22297.10651901  .00000558  00000-0  53152-4 0  9995,2 52286  53.2179 232.3863 0001888  50.5771 309.5388 15.08855059 29642,6917.834,95.437,541.005,538.393,0.0
52286.0,STARLINK-3802,PAYLOAD,2022-10-24 05:44:09,15.08854713,0.0001875,53.2181,231.7926,49.8699,310.2458,1.2646e-05,-8.7e-07,0.0,0 STARLINK-3802,1 52286U 22041AB  22297.23899961 -.00000087  00000-0  12646-4 0  9990,2 52286  53.2181 231.7926 0001875  49.8699 310.2458 15.08854713 28444,6917.835,95.437,540.998,538.403,0.0
52286.0,STARLINK-3802,PAYLOAD,2022-10-24 20:02:39,15.08832821,0.0001921,53.2176,229.1161,47.4542,312.6612,-0.00013654,-2.46e-05,0.0,0 STARLINK-3802,1 52286U 22041AB  22297.83517933 -.00002460  00000-0 -13654-3 0  9999,2 52286  53.2176 229.1161 0001921  47.4542 312.6612 15.08832821 28537,6917.901999999999,95.438,541.096,538.438,0.0
52286.0,STARLINK-3802,PAYLOAD,2022-10-25 02:24:11,15.08838598,0.0001899,53.218,227.9268,45.5184,314.5963,-7.4676e-05,-1.476e-05,0.0,0 STARLINK-3802,1 52286U 22041AB  22298.10013377 -.00001476  00000-0 -74676-4 0  9991,2 52286  53.2180 227.9268 0001899  45.5184 314.5963 15.08838598 29797,6917.885,95.438,541.063,538.436,0.0
52286.0,STARLINK-3802,PAYLOAD,2022-10-25 05:34:58,15.08835783,0.0001874,53.218,227.3329,46.1782,313.9365,-0.00010792,-2.005e-05,0.0,0 STARLINK-3802,1 52286U 22041AB  22298.23261695 -.00002005  00000-0 -10792-3 0  9990,2 52286  53.2180 227.3329 0001874  46.1782 313.9365 15.08835783 28592,6917.893,95.438,541.055,538.462,0.0
52286.0,STARLINK-3802,PAYLOAD,2022-10-25 18:18:03,15.08832042,0.0001863,53.2186,224.9557,49.1668,310.9486,-0.0001579,-2.8000000000000013e-05,0.0,0 STARLINK-3802,1 52286U 22041AB  22298.76254335 -.00002800  00000-0 -15790-3 0  9997,2 52286  53.2186 224.9557 0001863  49.1668 310.9486 15.08832042 29898,6917.905,95.438,541.059,538.481,0.0
52286.0,STARLINK-3802,PAYLOAD,2022-10-26 03:50:22,15.08838846,0.0001899,53.2185,223.1711,48.9618,311.1538,-8.0716e-05,-1.573e-05,0.0,0 STARLINK-3802,1 52286U 22041AB  22299.15997820 -.00001573  00000-0 -80716-4 0  9991,2 52286  53.2185 223.1711 0001899  48.9618 311.1538 15.08838846 29957,6917.884,95.438,541.063,538.435,0.0
52286.0,STARLINK-3802,PAYLOAD,2022-10-26 11:47:17,15.08839401,0.0001879,53.2184,221.6843,48.2784,311.8368,2.5918e-06,-2.47e-06,0.0,0 STARLINK-3802,1 52286U 22041AB  22299.49117555 -.00000247  00000-0  25918-5 0  9997,2 52286  53.2184 221.6843 0001879  48.2784 311.8368 15.08839401 28786,6917.882,95.438,541.047,538.447,0.0
52286.0,STARLINK-3802,PAYLOAD,2022-10-27 03:41:09,15.08830182,0.0001940999999999,53.2188,218.7112,50.2817,309.8346,2.311e-05,8e-07,0.0,0 STARLINK-3802,1 52286U 22041AB  22300.15358553  .00000080  00000-0  23110-4 0  9993,2 52286  53.2188 218.7112 0001941  50.2817 309.8346 15.08830182 30105,6917.91,95.438,541.118,538.433,0.0
52286.0,STARLINK-3802,PAYLOAD,2022-10-27 11:38:04,15.08838434,0.0001946,53.2185,217.224,48.996,311.1201,9.9807e-05,1.301e-05,0.0,0 STARLINK-3802,1 52286U 22041AB  22300.48477876  .00001301  00000-0  99807-4 0  9992,2 52286  53.2185 217.2240 0001946  48.9960 311.1201 15.08838434 30155,6917.885,95.438,541.096,538.404,0.0
